
# G01 (GNSS)
1 62339U 24242A   25330.92836440 -.00000056  00000+0  00000+0 0  9996
2 62339  54.9285 342.3820 0011414 343.1444  20.6436  2.00567458  7201

# G04 (GNSS)
1 43873U 18109A   25333.59183726  .00000043  00000+0  00000+0 0  9996
2 43873  55.5593 100.0665 0037185 194.4118 176.0405  2.00553144 51079

# G11 (GNSS)
1 48859U 21054A   25329.59642304 -.00000059  00000+0  00000+0 0  9993
2 48859  55.2621 340.6434 0024516 232.8820 130.1957  2.00554567 32672

# G14 (GNSS)
1 46826U 20078A   25316.12603230 -.00000034  00000+0  00000+0 0  9993
2 46826  54.0223 219.5836 0063911 203.4985 326.7754  2.00567032 37154

# G18 (GNSS)
1 44506U 19056A   25333.18618578 -.00000050  00000+0  00000+0 0  9994
2 44506  55.7261 339.0921 0057789 198.3088 135.6589  2.00565646 46053

# G21 (GNSS)
1 64202U 25116A   25331.65075464 -.00000060  00000+0  00000+0 0  9995
2 64202  55.0944  39.2516 0004863 304.4210  50.9436  2.00559190  3825

# G23 (GNSS)
1 45854U 20041A   25333.24703178 -.00000062  00000+0  00000+0 0  9998
2 45854  56.5373  36.7123 0060201 202.8015 119.3931  2.00561981 40021

# G28 (GNSS)
1 55268U 23009A   25333.02410118  .00000125  00000+0  00000+0 0  9999
2 55268  55.1039 156.3846 0003561   0.1395   0.0055  2.00556767 21233
