{
  "type": "FeatureCollection",
  "features": [
    {
      "type": "Feature",
      "properties": {
        "OBJECT_NAME": "GPS BIII-1  (PRN 04)",
        "OBJECT_ID": "2018-109A",
        "EPOCH": "2025-11-29T14:12:14.739264",
        "MEAN_MOTION": 2.00553144,
        "ECCENTRICITY": 0.0037185,
        "INCLINATION": 55.5593,
        "RA_OF_ASC_NODE": 100.0665,
        "ARG_OF_PERICENTER": 194.4118,
        "MEAN_ANOMALY": 176.0405,
        "EPHEMERIS_TYPE": 0,
        "CLASSIFICATION_TYPE": "U",
        "NORAD_CAT_ID": 43873,
        "ELEMENT_SET_NO": 999,
        "REV_AT_EPOCH": 5107,
        "BSTAR": 0,
        "MEAN_MOTION_DOT": 4.3e-07,
        "MEAN_MOTION_DDOT": 0,
        "norad_id": 43873,
        "name": "GPS BIII-1  (PRN 04)",
        "group": "gps-ops",
        "longitude_deg": NaN,
        "latitude_deg": NaN,
        "alt_km": NaN,
        "orbit_class": "HEO",
        "timestamp": "2025-11-30T04:58:49.606764+00:00"
      },
      "geometry": {
        "type": "Point",
        "coordinates": [
          NaN,
          NaN
        ]
      }
    },
    {
      "type": "Feature",
      "properties": {
        "OBJECT_NAME": "GPS BIII-2  (PRN 18)",
        "OBJECT_ID": "2019-056A",
        "EPOCH": "2025-11-29T04:28:06.451392",
        "MEAN_MOTION": 2.00565646,
        "ECCENTRICITY": 0.00577896,
        "INCLINATION": 55.7261,
        "RA_OF_ASC_NODE": 339.0921,
        "ARG_OF_PERICENTER": 198.3088,
        "MEAN_ANOMALY": 135.6589,
        "EPHEMERIS_TYPE": 0,
        "CLASSIFICATION_TYPE": "U",
        "NORAD_CAT_ID": 44506,
        "ELEMENT_SET_NO": 999,
        "REV_AT_EPOCH": 4605,
        "BSTAR": 0,
        "MEAN_MOTION_DOT": -5e-07,
        "MEAN_MOTION_DDOT": 0,
        "norad_id": 44506,
        "name": "GPS BIII-2  (PRN 18)",
        "group": "gps-ops",
        "longitude_deg": NaN,
        "latitude_deg": NaN,
        "alt_km": NaN,
        "orbit_class": "HEO",
        "timestamp": "2025-11-30T04:58:49.607390+00:00"
      },
      "geometry": {
        "type": "Point",
        "coordinates": [
          NaN,
          NaN
        ]
      }
    },
    {
      "type": "Feature",
      "properties": {
        "OBJECT_NAME": "GPS BIII-3  (PRN 23)",
        "OBJECT_ID": "2020-041A",
        "EPOCH": "2025-11-29T05:55:43.545792",
        "MEAN_MOTION": 2.00561981,
        "ECCENTRICITY": 0.00602012,
        "INCLINATION": 56.5373,
        "RA_OF_ASC_NODE": 36.7123,
        "ARG_OF_PERICENTER": 202.8015,
        "MEAN_ANOMALY": 119.3931,
        "EPHEMERIS_TYPE": 0,
        "CLASSIFICATION_TYPE": "U",
        "NORAD_CAT_ID": 45854,
        "ELEMENT_SET_NO": 999,
        "REV_AT_EPOCH": 4002,
        "BSTAR": 0,
        "MEAN_MOTION_DOT": -6.2e-07,
        "MEAN_MOTION_DDOT": 0,
        "norad_id": 45854,
        "name": "GPS BIII-3  (PRN 23)",
        "group": "gps-ops",
        "longitude_deg": NaN,
        "latitude_deg": NaN,
        "alt_km": NaN,
        "orbit_class": "HEO",
        "timestamp": "2025-11-30T04:58:49.609847+00:00"
      },
      "geometry": {
        "type": "Point",
        "coordinates": [
          NaN,
          NaN
        ]
      }
    },
    {
      "type": "Feature",
      "properties": {
        "OBJECT_NAME": "GPS BIII-4  (PRN 14)",
        "OBJECT_ID": "2020-078A",
        "EPOCH": "2025-11-12T03:01:29.190720",
        "MEAN_MOTION": 2.00567032,
        "ECCENTRICITY": 0.0063911,
        "INCLINATION": 54.0223,
        "RA_OF_ASC_NODE": 219.5836,
        "ARG_OF_PERICENTER": 203.4985,
        "MEAN_ANOMALY": 326.7754,
        "EPHEMERIS_TYPE": 0,
        "CLASSIFICATION_TYPE": "U",
        "NORAD_CAT_ID": 46826,
        "ELEMENT_SET_NO": 999,
        "REV_AT_EPOCH": 3715,
        "BSTAR": 0,
        "MEAN_MOTION_DOT": -3.4e-07,
        "MEAN_MOTION_DDOT": 0,
        "norad_id": 46826,
        "name": "GPS BIII-4  (PRN 14)",
        "group": "gps-ops",
        "longitude_deg": NaN,
        "latitude_deg": NaN,
        "alt_km": NaN,
        "orbit_class": "HEO",
        "timestamp": "2025-11-30T04:58:49.611280+00:00"
      },
      "geometry": {
        "type": "Point",
        "coordinates": [
          NaN,
          NaN
        ]
      }
    },
    {
      "type": "Feature",
      "properties": {
        "OBJECT_NAME": "GPS BIII-5  (PRN 11)",
        "OBJECT_ID": "2021-054A",
        "EPOCH": "2025-11-25T14:18:50.950656",
        "MEAN_MOTION": 2.00554567,
        "ECCENTRICITY": 0.00245163,
        "INCLINATION": 55.2621,
        "RA_OF_ASC_NODE": 340.6434,
        "ARG_OF_PERICENTER": 232.882,
        "MEAN_ANOMALY": 130.1957,
        "EPHEMERIS_TYPE": 0,
        "CLASSIFICATION_TYPE": "U",
        "NORAD_CAT_ID": 48859,
        "ELEMENT_SET_NO": 999,
        "REV_AT_EPOCH": 3267,
        "BSTAR": 0,
        "MEAN_MOTION_DOT": -5.9e-07,
        "MEAN_MOTION_DDOT": 0,
        "norad_id": 48859,
        "name": "GPS BIII-5  (PRN 11)",
        "group": "gps-ops",
        "longitude_deg": NaN,
        "latitude_deg": NaN,
        "alt_km": NaN,
        "orbit_class": "HEO",
        "timestamp": "2025-11-30T04:58:49.615856+00:00"
      },
      "geometry": {
        "type": "Point",
        "coordinates": [
          NaN,
          NaN
        ]
      }
    },
    {
      "type": "Feature",
      "properties": {
        "OBJECT_NAME": "GPS BIII-6  (PRN 28)",
        "OBJECT_ID": "2023-009A",
        "EPOCH": "2025-11-29T00:34:42.341952",
        "MEAN_MOTION": 2.00556767,
        "ECCENTRICITY": 0.00035619,
        "INCLINATION": 55.1039,
        "RA_OF_ASC_NODE": 156.3846,
        "ARG_OF_PERICENTER": 0.1395,
        "MEAN_ANOMALY": 0.0055,
        "EPHEMERIS_TYPE": 0,
        "CLASSIFICATION_TYPE": "U",
        "NORAD_CAT_ID": 55268,
        "ELEMENT_SET_NO": 999,
        "REV_AT_EPOCH": 2123,
        "BSTAR": 0,
        "MEAN_MOTION_DOT": 1.25e-06,
        "MEAN_MOTION_DDOT": 0,
        "norad_id": 55268,
        "name": "GPS BIII-6  (PRN 28)",
        "group": "gps-ops",
        "longitude_deg": NaN,
        "latitude_deg": NaN,
        "alt_km": NaN,
        "orbit_class": "HEO",
        "timestamp": "2025-11-30T04:58:49.631724+00:00"
      },
      "geometry": {
        "type": "Point",
        "coordinates": [
          NaN,
          NaN
        ]
      }
    },
    {
      "type": "Feature",
      "properties": {
        "OBJECT_NAME": "GPS BIII-7  (PRN 01)",
        "OBJECT_ID": "2024-242A",
        "EPOCH": "2025-11-26T22:16:50.684160",
        "MEAN_MOTION": 2.00567458,
        "ECCENTRICITY": 0.0011414,
        "INCLINATION": 54.9285,
        "RA_OF_ASC_NODE": 342.382,
        "ARG_OF_PERICENTER": 343.1444,
        "MEAN_ANOMALY": 20.6436,
        "EPHEMERIS_TYPE": 0,
        "CLASSIFICATION_TYPE": "U",
        "NORAD_CAT_ID": 62339,
        "ELEMENT_SET_NO": 999,
        "REV_AT_EPOCH": 720,
        "BSTAR": 0,
        "MEAN_MOTION_DOT": -5.6e-07,
        "MEAN_MOTION_DDOT": 0,
        "norad_id": 62339,
        "name": "GPS BIII-7  (PRN 01)",
        "group": "gps-ops",
        "longitude_deg": NaN,
        "latitude_deg": NaN,
        "alt_km": NaN,
        "orbit_class": "HEO",
        "timestamp": "2025-11-30T04:58:49.664575+00:00"
      },
      "geometry": {
        "type": "Point",
        "coordinates": [
          NaN,
          NaN
        ]
      }
    },
    {
      "type": "Feature",
      "properties": {
        "OBJECT_NAME": "GPS BIII-8  (PRN 21)",
        "OBJECT_ID": "2025-116A",
        "EPOCH": "2025-11-27T15:37:05.200896",
        "MEAN_MOTION": 2.0055919,
        "ECCENTRICITY": 0.00048631,
        "INCLINATION": 55.0944,
        "RA_OF_ASC_NODE": 39.2516,
        "ARG_OF_PERICENTER": 304.421,
        "MEAN_ANOMALY": 50.9436,
        "EPHEMERIS_TYPE": 0,
        "CLASSIFICATION_TYPE": "U",
        "NORAD_CAT_ID": 64202,
        "ELEMENT_SET_NO": 999,
        "REV_AT_EPOCH": 382,
        "BSTAR": 0,
        "MEAN_MOTION_DOT": -6e-07,
        "MEAN_MOTION_DDOT": 0,
        "norad_id": 64202,
        "name": "GPS BIII-8  (PRN 21)",
        "group": "gps-ops",
        "longitude_deg": NaN,
        "latitude_deg": NaN,
        "alt_km": NaN,
        "orbit_class": "HEO",
        "timestamp": "2025-11-30T04:58:49.676418+00:00"
      },
      "geometry": {
        "type": "Point",
        "coordinates": [
          NaN,
          NaN
        ]
      }
    }
  ]
}